[{"OBJECT_NAME":"COSMOS 1408 DEB","OBJECT_ID":"1982-092RU","EPOCH":"2026-03-14T10:02:21.265152","MEAN_MOTION":15.46831609,"ECCENTRICITY":0.00138761,"INCLINATION":82.5652,"RA_OF_ASC_NODE":324.4672,"ARG_OF_PERICENTER":237.0308,"MEAN_ANOMALY":122.9608,"EPHEMERIS_TYPE":0,"CLASSIFICATION_TYPE":"U","NORAD_CAT_ID":50032,"ELEMENT_SET_NO":999,"REV_AT_EPOCH":24020,"BSTAR":0.00011016194,"MEAN_MOTION_DOT":5.588e-5,"MEAN_MOTION_DDOT":0},{"OBJECT_NAME":"COSMOS 1408 DEB","OBJECT_ID":"1982-092SW","EPOCH":"2026-03-14T15:58:41.771136","MEAN_MOTION":15.7180287,"ECCENTRICITY":0.00150435,"INCLINATION":82.6128,"RA_OF_ASC_NODE":332.6079,"ARG_OF_PERICENTER":108.6271,"MEAN_ANOMALY":251.6628,"EPHEMERIS_TYPE":0,"CLASSIFICATION_TYPE":"U","NORAD_CAT_ID":50058,"ELEMENT_SET_NO":999,"REV_AT_EPOCH":24244,"BSTAR":0.00046322919,"MEAN_MOTION_DOT":0.0006065,"MEAN_MOTION_DDOT":0},{"OBJECT_NAME":"COSMOS 1408 DEB","OBJECT_ID":"1982-092ADS","EPOCH":"2026-03-14T14:08:25.128672","MEAN_MOTION":15.35781564,"ECCENTRICITY":0.01196793,"INCLINATION":82.1942,"RA_OF_ASC_NODE":119.5067,"ARG_OF_PERICENTER":237.181,"MEAN_ANOMALY":121.7864,"EPHEMERIS_TYPE":0,"CLASSIFICATION_TYPE":"U","NORAD_CAT_ID":50404,"ELEMENT_SET_NO":999,"REV_AT_EPOCH":22592,"BSTAR":0.0042924966,"MEAN_MOTION_DOT":0.00193419,"MEAN_MOTION_DDOT":0},{"OBJECT_NAME":"COSMOS 1408 DEB","OBJECT_ID":"1982-092ALR","EPOCH":"2026-03-14T01:11:10.295808","MEAN_MOTION":15.62768647,"ECCENTRICITY":0.00243326,"INCLINATION":82.5713,"RA_OF_ASC_NODE":338.704,"ARG_OF_PERICENTER":167.4462,"MEAN_ANOMALY":192.7408,"EPHEMERIS_TYPE":0,"CLASSIFICATION_TYPE":"U","NORAD_CAT_ID":50621,"ELEMENT_SET_NO":999,"REV_AT_EPOCH":23673,"BSTAR":0.00040743047,"MEAN_MOTION_DOT":0.00037281,"MEAN_MOTION_DDOT":0}]
