COSMOS 1408 DEB         
1 50032U 82092RU  26073.41830168  .00005588  00000+0  11016-3 0  9997
2 50032  82.5652 324.4672 0013876 237.0308 122.9608 15.46831609240205
COSMOS 1408 DEB         
1 50058U 82092SW  26073.66576124  .00060650  00000+0  46323-3 0  9991
2 50058  82.6128 332.6079 0015043 108.6271 251.6628 15.71802870242440
COSMOS 1408 DEB         
1 50404U 82092ADS 26073.58917973  .00193419  00000+0  42925-2 0  9991
2 50404  82.1942 119.5067 0119679 237.1810 121.7864 15.35781564225929
COSMOS 1408 DEB         
1 50621U 82092ALR 26073.04942472  .00037281  00000+0  40743-3 0  9996
2 50621  82.5713 338.7040 0024332 167.4462 192.7408 15.62768647236735
